YAOGAN-43 01D           
1 60461U 24148D   26068.43560480  .00010676  00000+0  37766-3 0  9999
2 60461  35.0010  61.7102 0002556 326.2473  33.8080 15.28369377 87008
STARLINK-34459          
1 64449U 25130M   26068.37527751  .00004773  00000+0  17344-3 0  9999
2 64449  53.1604  90.0838 0001454  92.9143 267.2024 15.30151864 40650
